start=new Date('2023-01-25T00:00:00.000Z').valueOf();
sats=[{"EPHEMERIS_TYPE":"0","GP_ID":"223630436","ELEMENT_SET_NO":"999","INCLINATION":"53.0546","SEMIMAJOR_AXIS":"6925.352","RA_OF_ASC_NODE":"26.4873","NORAD_CAT_ID":"44972","MEAN_ANOMALY":"259.8888","FILE":"3759594","EPOCH":"2023-01-24T04:45:01.566720","ARG_OF_PERICENTER":"100.2319","MEAN_ELEMENT_THEORY":"SGP4","PERIOD":"95.592","SITE":"AFETR","OBJECT_TYPE":"PAYLOAD","MEAN_MOTION_DDOT":"0.0000000000000","CENTER_NAME":"EARTH","APOAPSIS":"548.556","CLASSIFICATION_TYPE":"U","REF_FRAME":"TEME","PERIAPSIS":"545.878","TIME_SYSTEM":"UTC","RCS_SIZE":"LARGE","DECAY_DATE":null,"OBJECT_ID":"2020-001BL","MEAN_MOTION_DOT":"0.00001409","TLE_LINE2":"2 44972  53.0546  26.4873 0001934 100.2319 259.8888 15.06398905168519","OBJECT_NAME":"STARLINK-1107","ECCENTRICITY":"0.00019340","MEAN_MOTION":"15.06398905","REV_AT_EPOCH":"16851","LAUNCH_DATE":"2020-01-07","COUNTRY_CODE":"US","TLE_LINE1":"1 44972U 20001BL  23024.19793480  .00001409  00000-0  11348-3 0  9995","BSTAR":"0.00011348000000"},{"PERIAPSIS":"545.931","CLASSIFICATION_TYPE":"U","APOAPSIS":"548.508","REF_FRAME":"TEME","MEAN_MOTION_DOT":"0.00002408","TLE_LINE2":"2 44973  53.0560  26.2913 0001860 113.9841 246.1343 15.06398078168514","TIME_SYSTEM":"UTC","OBJECT_ID":"2020-001BM","RCS_SIZE":"LARGE","DECAY_DATE":null,"COUNTRY_CODE":"US","ECCENTRICITY":"0.00018600","MEAN_MOTION":"15.06398078","OBJECT_NAME":"STARLINK-1115","LAUNCH_DATE":"2020-01-07","REV_AT_EPOCH":"16851","BSTAR":"0.00018052000000","TLE_LINE1":"1 44973U 20001BM  23024.24217152  .00002408  00000-0  18052-3 0  9998","INCLINATION":"53.0560","ELEMENT_SET_NO":"999","EPHEMERIS_TYPE":"0","GP_ID":"223630015","NORAD_CAT_ID":"44973","MEAN_ANOMALY":"246.1343","SEMIMAJOR_AXIS":"6925.354","RA_OF_ASC_NODE":"26.2913","EPOCH":"2023-01-24T05:48:43.619328","FILE":"3759597","OBJECT_TYPE":"PAYLOAD","CENTER_NAME":"EARTH","MEAN_MOTION_DDOT":"0.0000000000000","ARG_OF_PERICENTER":"113.9841","SITE":"AFETR","PERIOD":"95.592","MEAN_ELEMENT_THEORY":"SGP4"},{"RA_OF_ASC_NODE":"3.3730","SEMIMAJOR_AXIS":"6925.342","MEAN_ANOMALY":"263.6510","NORAD_CAT_ID":"45044","ELEMENT_SET_NO":"999","EPHEMERIS_TYPE":"0","GP_ID":"223544162","INCLINATION":"53.0553","SITE":"AFETR","MEAN_ELEMENT_THEORY":"SGP4","PERIOD":"95.592","ARG_OF_PERICENTER":"96.4682","CENTER_NAME":"EARTH","MEAN_MOTION_DDOT":"0.0000000000000","OBJECT_TYPE":"PAYLOAD","FILE":"3755973","EPOCH":"2023-01-20T10:25:48.703008","OBJECT_ID":"2020-006A","DECAY_DATE":null,"RCS_SIZE":"LARGE","TIME_SYSTEM":"UTC","TLE_LINE2":"2 45044  53.0553   3.3730 0001784  96.4682 263.6510 15.06402192164274","MEAN_MOTION_DOT":"0.00009432","REF_FRAME":"TEME","CLASSIFICATION_TYPE":"U","APOAPSIS":"548.442","PERIAPSIS":"545.971","TLE_LINE1":"1 45044U 20006A   23020.43459147  .00009432  00000-0  65122-3 0  9996","BSTAR":"0.00065122000000","LAUNCH_DATE":"2020-01-29","REV_AT_EPOCH":"16427","ECCENTRICITY":"0.00017840","MEAN_MOTION":"15.06402192","OBJECT_NAME":"STARLINK-1132","COUNTRY_CODE":"US"},{"REF_FRAME":"TEME","APOAPSIS":"548.371","CLASSIFICATION_TYPE":"U","PERIAPSIS":"545.902","RCS_SIZE":"LARGE","DECAY_DATE":null,"OBJECT_ID":"2020-006B","TIME_SYSTEM":"UTC","TLE_LINE2":"2 45045  53.0543  24.0335 0001783  89.1403 270.9790 15.06425079163970","MEAN_MOTION_DOT":"0.00020013","REV_AT_EPOCH":"16397","LAUNCH_DATE":"2020-01-29","OBJECT_NAME":"STARLINK-1120","MEAN_MOTION":"15.06425079","ECCENTRICITY":"0.00017830","COUNTRY_CODE":"US","TLE_LINE1":"1 45045U 20006B   23020.28805967  .00020013  00000-0  13577-2 0  9999","BSTAR":"0.00135770000000","EPHEMERIS_TYPE":"0","GP_ID":"223543911","ELEMENT_SET_NO":"999","INCLINATION":"53.0543","SEMIMAJOR_AXIS":"6925.272","RA_OF_ASC_NODE":"24.0335","NORAD_CAT_ID":"45045","MEAN_ANOMALY":"270.9790","FILE":"3755973","EPOCH":"2023-01-20T06:54:48.355488","MEAN_ELEMENT_THEORY":"SGP4","PERIOD":"95.591","SITE":"AFETR","ARG_OF_PERICENTER":"89.1403","MEAN_MOTION_DDOT":"0.0000000000000","CENTER_NAME":"EARTH","OBJECT_TYPE":"PAYLOAD"},{"BSTAR":"0.00373050000000","TLE_LINE1":"1 45046U 20006C   23019.30375874  .00113228  00000-0  37305-2 0  9996","COUNTRY_CODE":"US","OBJECT_NAME":"STARLINK-1129","MEAN_MOTION":"15.30598618","ECCENTRICITY":"0.00019090","REV_AT_EPOCH":"16425","LAUNCH_DATE":"2020-01-29","MEAN_MOTION_DOT":"0.00113228","TLE_LINE2":"2 45046  52.9869 353.8991 0001909 126.6837 233.4337 15.30598618164259","TIME_SYSTEM":"UTC","DECAY_DATE":null,"RCS_SIZE":"LARGE","OBJECT_ID":"2020-006C","PERIAPSIS":"472.719","APOAPSIS":"475.335","CLASSIFICATION_TYPE":"U","REF_FRAME":"TEME","OBJECT_TYPE":"PAYLOAD","MEAN_MOTION_DDOT":"0.0000000000000","CENTER_NAME":"EARTH","ARG_OF_PERICENTER":"126.6837","MEAN_ELEMENT_THEORY":"SGP4","PERIOD":"94.081","SITE":"AFETR","EPOCH":"2023-01-19T07:17:24.755136","FILE":"3754973","NORAD_CAT_ID":"45046","MEAN_ANOMALY":"233.4337","RA_OF_ASC_NODE":"353.8991","SEMIMAJOR_AXIS":"6852.162","INCLINATION":"52.9869","GP_ID":"223494251","EPHEMERIS_TYPE":"0","ELEMENT_SET_NO":"999"},{"RA_OF_ASC_NODE":"23.1262","SEMIMAJOR_AXIS":"6925.347","MEAN_ANOMALY":"258.1459","NORAD_CAT_ID":"45047","ELEMENT_SET_NO":"999","GP_ID":"223543412","EPHEMERIS_TYPE":"0","INCLINATION":"53.0544","ARG_OF_PERICENTER":"101.9727","SITE":"AFETR","MEAN_ELEMENT_THEORY":"SGP4","PERIOD":"95.592","OBJECT_TYPE":"PAYLOAD","CENTER_NAME":"EARTH","MEAN_MOTION_DDOT":"0.0000000000000","FILE":"3755973","EPOCH":"2023-01-20T11:48:05.011488","TIME_SYSTEM":"UTC","OBJECT_ID":"2020-006D","DECAY_DATE":null,"RCS_SIZE":"LARGE","MEAN_MOTION_DOT":"0.00017006","TLE_LINE2":"2 45047  53.0544  23.1262 0001759 101.9727 258.1459 15.06400379164008","CLASSIFICATION_TYPE":"U","APOAPSIS":"548.431","REF_FRAME":"TEME","PERIAPSIS":"545.994","TLE_LINE1":"1 45047U 20006D   23020.49172467  .00017006  00000-0  11578-2 0  9993","BSTAR":"0.00115780000000","MEAN_MOTION":"15.06400379","ECCENTRICITY":"0.00017590","OBJECT_NAME":"STARLINK-1131","LAUNCH_DATE":"2020-01-29","REV_AT_EPOCH":"16400","COUNTRY_CODE":"US"},{"COUNTRY_CODE":"US","LAUNCH_DATE":"2020-01-29","REV_AT_EPOCH":"16397","MEAN_MOTION":"15.06403934","ECCENTRICITY":"0.00015780","OBJECT_NAME":"STARLINK-1134","BSTAR":"0.00052802000000","TLE_LINE1":"1 45048U 20006E   23020.30005491  .00007593  00000-0  52802-3 0  9992","PERIAPSIS":"546.109","REF_FRAME":"TEME","CLASSIFICATION_TYPE":"U","APOAPSIS":"548.294","TLE_LINE2":"2 45048  53.0553  23.9763 0001578  75.6370 284.4794 15.06403934163972","MEAN_MOTION_DOT":"0.00007593","OBJECT_ID":"2020-006E","DECAY_DATE":null,"RCS_SIZE":"LARGE","TIME_SYSTEM":"UTC","EPOCH":"2023-01-20T07:12:04.744224","FILE":"3755973","CENTER_NAME":"EARTH","MEAN_MOTION_DDOT":"0.0000000000000","OBJECT_TYPE":"PAYLOAD","SITE":"AFETR","MEAN_ELEMENT_THEORY":"SGP4","PERIOD":"95.592","ARG_OF_PERICENTER":"75.6370","INCLINATION":"53.0553","ELEMENT_SET_NO":"999","GP_ID":"223543663","EPHEMERIS_TYPE":"0","NORAD_CAT_ID":"45048","MEAN_ANOMALY":"284.4794","SEMIMAJOR_AXIS":"6925.337","RA_OF_ASC_NODE":"23.9763"},{"GP_ID":"223544411","EPHEMERIS_TYPE":"0","ELEMENT_SET_NO":"999","INCLINATION":"53.0554","SEMIMAJOR_AXIS":"6893.439","RA_OF_ASC_NODE":"13.2980","NORAD_CAT_ID":"45049","MEAN_ANOMALY":"327.6495","FILE":"3755973","EPOCH":"2023-01-20T08:58:52.953600","ARG_OF_PERICENTER":"32.4529","PERIOD":"94.932","MEAN_ELEMENT_THEORY":"SGP4","SITE":"AFETR","OBJECT_TYPE":"PAYLOAD","MEAN_MOTION_DDOT":"0.0000000000000","CENTER_NAME":"EARTH","APOAPSIS":"515.643","CLASSIFICATION_TYPE":"U","REF_FRAME":"TEME","PERIAPSIS":"514.966","TIME_SYSTEM":"UTC","RCS_SIZE":"LARGE","DECAY_DATE":null,"OBJECT_ID":"2020-006F","MEAN_MOTION_DOT":"0.00049247","TLE_LINE2":"2 45049  53.0554  13.2980 0000491  32.4529 327.6495 15.16871691164134","OBJECT_NAME":"STARLINK-1135","MEAN_MOTION":"15.16871691","ECCENTRICITY":"0.00004910","REV_AT_EPOCH":"16413","LAUNCH_DATE":"2020-01-29","COUNTRY_CODE":"US","TLE_LINE1":"1 45049U 20006F   23020.37422400  .00049247  00000-0  24702-2 0  9992","BSTAR":"0.00247020000000"},{"PERIAPSIS":"546.210","CLASSIFICATION_TYPE":"U","APOAPSIS":"548.170","REF_FRAME":"TEME","MEAN_MOTION_DOT":"0.00002815","TLE_LINE2":"2 45050  53.0531  23.3441 0001415  93.3610 266.7541 15.06407588163996","TIME_SYSTEM":"UTC","OBJECT_ID":"2020-006G","RCS_SIZE":"LARGE","DECAY_DATE":null,"COUNTRY_CODE":"US","ECCENTRICITY":"0.00014150","MEAN_MOTION":"15.06407588","OBJECT_NAME":"STARLINK-1140","LAUNCH_DATE":"2020-01-29","REV_AT_EPOCH":"16399","BSTAR":"0.00020776000000","TLE_LINE1":"1 45050U 20006G   23020.44380419  .00002815  00000-0  20776-3 0  9993","INCLINATION":"53.0531","ELEMENT_SET_NO":"999","GP_ID":"223542664","EPHEMERIS_TYPE":"0","NORAD_CAT_ID":"45050","MEAN_ANOMALY":"266.7541","SEMIMAJOR_AXIS":"6925.325","RA_OF_ASC_NODE":"23.3441","EPOCH":"2023-01-20T10:39:04.682016","FILE":"3755973","OBJECT_TYPE":"PAYLOAD","CENTER_NAME":"EARTH","MEAN_MOTION_DDOT":"0.0000000000000","ARG_OF_PERICENTER":"93.3610","SITE":"AFETR","MEAN_ELEMENT_THEORY":"SGP4","PERIOD":"95.592"},{"TIME_SYSTEM":"UTC","OBJECT_ID":"2020-006H","RCS_SIZE":"LARGE","DECAY_DATE":null,"MEAN_MOTION_DOT":"0.00071558","TLE_LINE2":"2 45051  53.0642   3.7172 0003440 108.2701 251.8671 15.25084572164254","CLASSIFICATION_TYPE":"U","APOAPSIS":"492.896","REF_FRAME":"TEME","PERIAPSIS":"488.171","TLE_LINE1":"1 45051U 20006H   23020.21227649  .00071558  00000-0  28091-2 0  9991","BSTAR":"0.00280910000000","ECCENTRICITY":"0.00034400","MEAN_MOTION":"15.25084572","OBJECT_NAME":"STARLINK-1141","LAUNCH_DATE":"2020-01-29","REV_AT_EPOCH":"16425","COUNTRY_CODE":"US","RA_OF_ASC_NODE":"3.7172","SEMIMAJOR_AXIS":"6868.668","NORAD_CAT_ID":"45051","MEAN_ANOMALY":"251.8671","ELEMENT_SET_NO":"999","GP_ID":"223542913","EPHEMERIS_TYPE":"0","INCLINATION":"53.0642","ARG_OF_PERICENTER":"108.2701","SITE":"AFETR","MEAN_ELEMENT_THEORY":"SGP4","PERIOD":"94.421","OBJECT_TYPE":"PAYLOAD","CENTER_NAME":"EARTH","MEAN_MOTION_DDOT":"0.0000000000000","FILE":"3755973","EPOCH":"2023-01-20T05:05:40.688736"}];
